start=new Date('2021-11-10T00:00:00.000Z').valueOf();
sats=[{"RCS_SIZE":"LARGE","MEAN_ELEMENT_THEORY":"SGP4","PERIAPSIS":"543.944","TIME_SYSTEM":"UTC","OBJECT_NAME":"STARLINK-2149","GP_ID":"189361558","DECAY_DATE":null,"ARG_OF_PERICENTER":"343.4612","MEAN_MOTION_DDOT":"0.0000000000000","APOAPSIS":"550.559","PERIOD":"95.593","OBJECT_TYPE":"PAYLOAD","TLE_LINE2":"2 47738  53.0546  98.4716 0004776 343.4612  16.6221 15.06387572 39640","REF_FRAME":"TEME","FILE":"3210180","MEAN_ANOMALY":"16.6221","MEAN_MOTION":"15.06387572","NORAD_CAT_ID":"47738","ECCENTRICITY":"0.00047760","SEMIMAJOR_AXIS":"6925.387","REV_AT_EPOCH":"3964","INCLINATION":"53.0546","MEAN_MOTION_DOT":"0.00000981","SITE":"AFETR","ELEMENT_SET_NO":"999","RA_OF_ASC_NODE":"98.4716","CLASSIFICATION_TYPE":"U","OBJECT_ID":"2021-017S","COUNTRY_CODE":"US","EPOCH":"2021-11-09T19:26:02.108832","CENTER_NAME":"EARTH","LAUNCH_DATE":"2021-03-04","TLE_LINE1":"1 47738U 21017S   21313.80974663  .00000981  00000-0  84879-4 0  9991","EPHEMERIS_TYPE":"0","BSTAR":"0.00008487900000"},{"REV_AT_EPOCH":"3926","INCLINATION":"53.0540","MEAN_MOTION_DOT":"0.00000460","SITE":"AFETR","NORAD_CAT_ID":"47739","ECCENTRICITY":"0.00014740","SEMIMAJOR_AXIS":"6925.409","EPOCH":"2021-11-09T14:12:13.703328","CENTER_NAME":"EARTH","TLE_LINE1":"1 47739U 21017T   21313.59182527  .00000460  00000-0  49797-4 0  9990","LAUNCH_DATE":"2021-03-04","BSTAR":"0.00004979700000","EPHEMERIS_TYPE":"0","ELEMENT_SET_NO":"999","RA_OF_ASC_NODE":"124.4457","CLASSIFICATION_TYPE":"U","OBJECT_ID":"2021-017T","COUNTRY_CODE":"US","GP_ID":"189361809","RCS_SIZE":"LARGE","MEAN_ELEMENT_THEORY":"SGP4","PERIAPSIS":"546.253","TIME_SYSTEM":"UTC","OBJECT_NAME":"STARLINK-2150","PERIOD":"95.593","OBJECT_TYPE":"PAYLOAD","TLE_LINE2":"2 47739  53.0540 124.4457 0001474  88.5288 271.5869 15.06380292 39265","REF_FRAME":"TEME","FILE":"3210180","MEAN_ANOMALY":"271.5869","MEAN_MOTION":"15.06380292","DECAY_DATE":null,"ARG_OF_PERICENTER":"88.5288","APOAPSIS":"548.295","MEAN_MOTION_DDOT":"0.0000000000000"},{"RA_OF_ASC_NODE":"108.3467","CLASSIFICATION_TYPE":"U","OBJECT_ID":"2021-017U","COUNTRY_CODE":"US","ELEMENT_SET_NO":"999","BSTAR":"0.00006866200000","EPHEMERIS_TYPE":"0","EPOCH":"2021-11-09T20:07:09.876000","CENTER_NAME":"EARTH","LAUNCH_DATE":"2021-03-04","TLE_LINE1":"1 47740U 21017U   21313.83830875  .00000741  00000-0  68662-4 0  9999","NORAD_CAT_ID":"47740","ECCENTRICITY":"0.00013090","SEMIMAJOR_AXIS":"6925.371","SITE":"AFETR","INCLINATION":"53.0556","REV_AT_EPOCH":"3950","MEAN_MOTION_DOT":"0.00000741","MEAN_MOTION_DDOT":"0.0000000000000","APOAPSIS":"548.142","DECAY_DATE":null,"ARG_OF_PERICENTER":"86.8292","REF_FRAME":"TEME","FILE":"3210180","MEAN_ANOMALY":"273.2847","MEAN_MOTION":"15.06392808","PERIOD":"95.593","OBJECT_TYPE":"PAYLOAD","TLE_LINE2":"2 47740  53.0556 108.3467 0001309  86.8292 273.2847 15.06392808 39507","TIME_SYSTEM":"UTC","OBJECT_NAME":"STARLINK-2152","RCS_SIZE":"LARGE","PERIAPSIS":"546.329","MEAN_ELEMENT_THEORY":"SGP4","GP_ID":"189360557"},{"NORAD_CAT_ID":"47741","ECCENTRICITY":"0.00016390","SEMIMAJOR_AXIS":"6925.358","INCLINATION":"53.0557","REV_AT_EPOCH":"3945","MEAN_MOTION_DOT":"0.00001025","SITE":"AFETR","ELEMENT_SET_NO":"999","CLASSIFICATION_TYPE":"U","RA_OF_ASC_NODE":"108.5758","COUNTRY_CODE":"US","OBJECT_ID":"2021-017V","CENTER_NAME":"EARTH","EPOCH":"2021-11-09T18:52:50.691648","LAUNCH_DATE":"2021-03-04","TLE_LINE1":"1 47741U 21017V   21313.78669782  .00001025  00000-0  87721-4 0  9994","EPHEMERIS_TYPE":"0","BSTAR":"0.00008772100000","MEAN_ELEMENT_THEORY":"SGP4","PERIAPSIS":"546.088","RCS_SIZE":"LARGE","TIME_SYSTEM":"UTC","OBJECT_NAME":"STARLINK-2154","GP_ID":"189360807","DECAY_DATE":null,"ARG_OF_PERICENTER":"82.6669","APOAPSIS":"548.358","MEAN_MOTION_DDOT":"0.0000000000000","OBJECT_TYPE":"PAYLOAD","PERIOD":"95.592","TLE_LINE2":"2 47741  53.0557 108.5758 0001639  82.6669 277.4507 15.06397002 39456","FILE":"3210180","REF_FRAME":"TEME","MEAN_MOTION":"15.06397002","MEAN_ANOMALY":"277.4507"},{"BSTAR":"0.00007954300000","EPHEMERIS_TYPE":"0","TLE_LINE1":"1 47742U 21017W   21313.66598315  .00000903  00000-0  79543-4 0  9992","LAUNCH_DATE":"2021-03-04","CENTER_NAME":"EARTH","EPOCH":"2021-11-09T15:59:00.944160","COUNTRY_CODE":"US","OBJECT_ID":"2021-017W","CLASSIFICATION_TYPE":"U","RA_OF_ASC_NODE":"99.1182","ELEMENT_SET_NO":"999","SITE":"AFETR","MEAN_MOTION_DOT":"0.00000903","REV_AT_EPOCH":"3962","INCLINATION":"53.0573","SEMIMAJOR_AXIS":"6925.365","ECCENTRICITY":"0.00015500","NORAD_CAT_ID":"47742","MEAN_ANOMALY":"275.7983","MEAN_MOTION":"15.06394520","FILE":"3210180","REF_FRAME":"TEME","TLE_LINE2":"2 47742  53.0573  99.1182 0001550  84.3183 275.7983 15.06394520 39623","OBJECT_TYPE":"PAYLOAD","PERIOD":"95.592","MEAN_MOTION_DDOT":"0.0000000000000","APOAPSIS":"548.304","ARG_OF_PERICENTER":"84.3183","DECAY_DATE":null,"GP_ID":"189362059","OBJECT_NAME":"STARLINK-2156","TIME_SYSTEM":"UTC","MEAN_ELEMENT_THEORY":"SGP4","PERIAPSIS":"546.157","RCS_SIZE":"LARGE"},{"LAUNCH_DATE":"2021-03-04","TLE_LINE1":"1 47743U 21017X   21313.82448312  .00002987  00000-0  21933-3 0  9995","CENTER_NAME":"EARTH","EPOCH":"2021-11-09T19:47:15.341568","BSTAR":"0.00021933000000","EPHEMERIS_TYPE":"0","ELEMENT_SET_NO":"999","COUNTRY_CODE":"US","OBJECT_ID":"2021-017X","CLASSIFICATION_TYPE":"U","RA_OF_ASC_NODE":"98.3857","MEAN_MOTION_DOT":"0.00002987","INCLINATION":"53.0558","REV_AT_EPOCH":"3962","SITE":"AFETR","SEMIMAJOR_AXIS":"6925.348","NORAD_CAT_ID":"47743","ECCENTRICITY":"0.00014570","TLE_LINE2":"2 47743  53.0558  98.3857 0001457  90.6677 269.4479 15.06400032 39627","OBJECT_TYPE":"PAYLOAD","PERIOD":"95.592","MEAN_MOTION":"15.06400032","MEAN_ANOMALY":"269.4479","FILE":"3210180","REF_FRAME":"TEME","ARG_OF_PERICENTER":"90.6677","DECAY_DATE":null,"MEAN_MOTION_DDOT":"0.0000000000000","APOAPSIS":"548.222","GP_ID":"189362310","PERIAPSIS":"546.204","MEAN_ELEMENT_THEORY":"SGP4","RCS_SIZE":"LARGE","OBJECT_NAME":"STARLINK-2157","TIME_SYSTEM":"UTC"},{"APOAPSIS":"548.129","MEAN_MOTION_DDOT":"0.0000000000000","ARG_OF_PERICENTER":"89.3405","DECAY_DATE":null,"MEAN_MOTION":"15.06410094","MEAN_ANOMALY":"270.7741","FILE":"3210180","REF_FRAME":"TEME","TLE_LINE2":"2 47744  53.0565  98.7996 0001366  89.3405 270.7741 15.06410094 39634","OBJECT_TYPE":"PAYLOAD","PERIOD":"95.591","OBJECT_NAME":"STARLINK-2158","TIME_SYSTEM":"UTC","PERIAPSIS":"546.237","MEAN_ELEMENT_THEORY":"SGP4","RCS_SIZE":"LARGE","GP_ID":"189361058","COUNTRY_CODE":"US","OBJECT_ID":"2021-017Y","CLASSIFICATION_TYPE":"U","RA_OF_ASC_NODE":"98.7996","ELEMENT_SET_NO":"999","BSTAR":"0.00018195000000","EPHEMERIS_TYPE":"0","LAUNCH_DATE":"2021-03-04","TLE_LINE1":"1 47744U 21017Y   21313.73600357  .00002430  00000-0  18195-3 0  9994","CENTER_NAME":"EARTH","EPOCH":"2021-11-09T17:39:50.708448","SEMIMAJOR_AXIS":"6925.318","NORAD_CAT_ID":"47744","ECCENTRICITY":"0.00013660","SITE":"AFETR","MEAN_MOTION_DOT":"0.00002430","INCLINATION":"53.0565","REV_AT_EPOCH":"3963"},{"MEAN_MOTION_DOT":"0.00002557","INCLINATION":"53.0563","REV_AT_EPOCH":"3943","SITE":"AFETR","SEMIMAJOR_AXIS":"6925.357","NORAD_CAT_ID":"47745","ECCENTRICITY":"0.00014400","LAUNCH_DATE":"2021-03-04","TLE_LINE1":"1 47745U 21017Z   21313.69824479  .00002557  00000-0  19048-3 0  9991","EPOCH":"2021-11-09T16:45:28.349856","CENTER_NAME":"EARTH","EPHEMERIS_TYPE":"0","BSTAR":"0.00019048000000","ELEMENT_SET_NO":"999","OBJECT_ID":"2021-017Z","COUNTRY_CODE":"US","RA_OF_ASC_NODE":"108.9781","CLASSIFICATION_TYPE":"U","GP_ID":"189361308","RCS_SIZE":"LARGE","PERIAPSIS":"546.225","MEAN_ELEMENT_THEORY":"SGP4","OBJECT_NAME":"STARLINK-2159","TIME_SYSTEM":"UTC","TLE_LINE2":"2 47745  53.0563 108.9781 0001440  84.0421 276.0732 15.06397258 39435","PERIOD":"95.592","OBJECT_TYPE":"PAYLOAD","MEAN_MOTION":"15.06397258","MEAN_ANOMALY":"276.0732","REF_FRAME":"TEME","FILE":"3210180","ARG_OF_PERICENTER":"84.0421","DECAY_DATE":null,"APOAPSIS":"548.219","MEAN_MOTION_DDOT":"0.0000000000000"},{"SEMIMAJOR_AXIS":"6925.367","NORAD_CAT_ID":"47746","ECCENTRICITY":"0.00013550","MEAN_MOTION_DOT":"0.00002998","REV_AT_EPOCH":"3942","INCLINATION":"53.0549","SITE":"AFETR","ELEMENT_SET_NO":"999","COUNTRY_CODE":"US","OBJECT_ID":"2021-017AA","CLASSIFICATION_TYPE":"U","RA_OF_ASC_NODE":"108.9850","TLE_LINE1":"1 47746U 21017AA  21313.69087900  .00002998  00000-0  22010-3 0  9994","LAUNCH_DATE":"2021-03-04","CENTER_NAME":"EARTH","EPOCH":"2021-11-09T16:34:51.945600","EPHEMERIS_TYPE":"0","BSTAR":"0.00022010000000","MEAN_ELEMENT_THEORY":"SGP4","PERIAPSIS":"546.294","RCS_SIZE":"LARGE","OBJECT_NAME":"STARLINK-2160","TIME_SYSTEM":"UTC","GP_ID":"189361559","ARG_OF_PERICENTER":"90.7711","DECAY_DATE":null,"APOAPSIS":"548.170","MEAN_MOTION_DDOT":"0.0000000000000","TLE_LINE2":"2 47746  53.0549 108.9850 0001355  90.7711 269.3433 15.06394006 39428","OBJECT_TYPE":"PAYLOAD","PERIOD":"95.593","MEAN_ANOMALY":"269.3433","MEAN_MOTION":"15.06394006","FILE":"3210180","REF_FRAME":"TEME"},{"GP_ID":"189361810","PERIAPSIS":"546.251","MEAN_ELEMENT_THEORY":"SGP4","RCS_SIZE":"LARGE","TIME_SYSTEM":"UTC","OBJECT_NAME":"STARLINK-2161","OBJECT_TYPE":"PAYLOAD","PERIOD":"95.593","TLE_LINE2":"2 47747  53.0572  98.4199 0001416  87.0786 273.0365 15.06393975 39625","FILE":"3210180","REF_FRAME":"TEME","MEAN_MOTION":"15.06393975","MEAN_ANOMALY":"273.0365","DECAY_DATE":null,"ARG_OF_PERICENTER":"87.0786","APOAPSIS":"548.213","MEAN_MOTION_DDOT":"0.0000000000000","REV_AT_EPOCH":"3962","INCLINATION":"53.0572","MEAN_MOTION_DOT":"0.00001120","SITE":"AFETR","NORAD_CAT_ID":"47747","ECCENTRICITY":"0.00014160","SEMIMAJOR_AXIS":"6925.367","CENTER_NAME":"EARTH","EPOCH":"2021-11-09T19:41:57.818112","LAUNCH_DATE":"2021-03-04","TLE_LINE1":"1 47747U 21017AB  21313.82080808  .00001120  00000-0  94057-4 0  9997","EPHEMERIS_TYPE":"0","BSTAR":"0.00009405700000","ELEMENT_SET_NO":"999","CLASSIFICATION_TYPE":"U","RA_OF_ASC_NODE":"98.4199","COUNTRY_CODE":"US","OBJECT_ID":"2021-017AB"}];
